ASTROCAST-0404          
1 55112U 23001DH  26068.80836714  .00008870  00000+0  34436-3 0  9994
2 55112  97.5646 161.5422 0006847   1.1317 358.9936 15.26309833129366
STARLINK-32670          
1 62210U 24229U   26068.95532920  .00025597  00000+0  93602-3 0  9997
2 62210  43.0008 269.0710 0001215 347.9350  12.1472 15.27595716 70601
