[{"OBJECT_NAME":"ASTROCAST-0404","OBJECT_ID":"2023-001DH","EPOCH":"2026-03-09T19:24:02.920896","MEAN_MOTION":15.26309833,"ECCENTRICITY":0.00068478,"INCLINATION":97.5646,"RA_OF_ASC_NODE":161.5422,"ARG_OF_PERICENTER":1.1317,"MEAN_ANOMALY":358.9936,"EPHEMERIS_TYPE":0,"CLASSIFICATION_TYPE":"U","NORAD_CAT_ID":55112,"ELEMENT_SET_NO":999,"REV_AT_EPOCH":12936,"BSTAR":0.00034435555,"MEAN_MOTION_DOT":8.87e-5,"MEAN_MOTION_DDOT":0},{"OBJECT_NAME":"STARLINK-32670","OBJECT_ID":"2024-229U","EPOCH":"2026-03-09T22:55:40.443744","MEAN_MOTION":15.27595716,"ECCENTRICITY":0.00012149,"INCLINATION":43.0008,"RA_OF_ASC_NODE":269.071,"ARG_OF_PERICENTER":347.935,"MEAN_ANOMALY":12.1472,"EPHEMERIS_TYPE":0,"CLASSIFICATION_TYPE":"U","NORAD_CAT_ID":62210,"ELEMENT_SET_NO":999,"REV_AT_EPOCH":7060,"BSTAR":0.00093602336,"MEAN_MOTION_DOT":0.00025597,"MEAN_MOTION_DDOT":0}]
